# From MPC106342
C/1995 O1 (Hale-Bopp),e,89.0131,283.3117,130.5536,179.2815,0.0004106,0.99494370,0.0000,03/29.7278/1997,2000,g -2.0,4.0
# From NK 1615
P/1996 R2 (Lagerkvist),e,2.6003,40.0321,333.3106,3.775050,0.1343755,0.31402978,87.9308,11/27.0/2020,2000,g 11.5,4.0
# From MPC 30063
P/1997 B1 (Kobayashi),e,12.3396,328.8847,183.3599,8.567874,0.0393002,0.76010952,340.8685,11/27.0/2020,2000,g 15.0,2.0
# From MPC 75703
P/1998 VS24 (LINEAR),e,5.0252,159.0311,244.6769,4.529607,0.1022382,0.24197256,106.7372,11/27.0/2020,2000,g 13.0,2.0
# From NK 731
P/1999 RO28 (LONEOS),e,7.5667,137.8834,231.2696,3.426784,0.1553724,0.67205408,80.7772,11/27.0/2020,2000,g 20.0,2.0
# From MPC 75704
P/1999 XN120 (Catalina),e,5.0297,285.2957,161.9006,4.178995,0.1153709,0.21034423,145.9821,11/27.0/2020,2000,g 13.5,2.0
# From NK 744
P/2000 R2 (LINEAR),e,11.6845,160.2943,176.5159,3.466088,0.1527371,0.53156290,80.7350,11/27.0/2020,2000,g 18.0,4.0
# From MPC 43019
P/2001 H5 (NEAT),e,8.3673,328.6850,224.8685,6.098118,0.0654501,0.59867883,122.1039,11/27.0/2020,2000,g 12.0,4.0
# From MPC 75704
P/2001 Q6 (NEAT),e,56.9024,22.1299,42.9454,7.950673,0.0439641,0.82281388,307.7226,11/27.0/2020,2000,g 13.5,4.0
# From MPC 47727
P/2002 EJ57 (LINEAR),e,4.9761,330.3285,167.3637,6.473157,0.0598453,0.59279134,53.4127,11/27.0/2020,2000,g 12.5,4.0
# From MPEC 2020-SI8
P/2002 T5 (LINEAR),e,30.8529,123.0884,326.7657,7.005588,0.0531541,0.43792024,339.6525,11/27.0/2020,2000,g  8.0,4.0
# From MPC109588
P/2002 T6 (NEAT-LINEAR),e,10.8333,206.4499,219.5965,7.670634,0.0463935,0.56006486,298.0826,11/27.0/2020,2000,g 10.5,4.0
# From MPC 50354
P/2003 F2 (NEAT),e,11.6047,359.0726,191.9238,6.490266,0.0596088,0.54221692,22.6931,11/27.0/2020,2000,g 16.5,2.0
# From MPC 50139
P/2003 QX29 (NEAT),e,11.3898,264.5882,37.4039,8.032598,0.0432932,0.47297213,285.8851,11/27.0/2020,2000,g  8.5,4.0
# From MPC105235
P/2003 T12 (SOHO),e,11.0169,174.5734,219.7693,2.586202,0.2369792,0.76964430,48.3766,11/27.0/2020,2000,g 17.0,4.0
# From MPC 82312
P/2004 A1 (LONEOS),e,10.5516,124.8475,21.4177,7.955905,0.0439207,0.30936857,261.2754,11/27.0/2020,2000,g  6.5,4.0
# From MPC 54558
P/2004 DO29 (Spacewatch-LINEAR),e,14.5317,147.3796,40.7227,7.282804,0.0501483,0.44132760,295.5262,11/27.0/2020,2000,g 13.5,2.0
# From MPC 54823
P/2004 FY140 (LINEAR),e,2.1348,326.7612,242.4592,4.901707,0.0908203,0.16861165,177.2837,11/27.0/2020,2000,g 12.5,2.0
# From MPC 53304
P/2004 R3 (LINEAR-NEAT),e,12.8258,305.4806,38.6722,4.794744,0.0938763,0.26131023,331.4302,11/27.0/2020,2000,g 14.5,4.0
# From MPC 55521
P/2004 V3 (Siding Spring),e,50.4330,356.1159,322.3009,7.144009,0.0516168,0.44632659,303.7409,11/27.0/2020,2000,g 11.5,4.0
# From MPC 75705
P/2004 V5 (LINEAR-Hill),e,19.3450,47.7702,87.7840,7.975904,0.0437557,0.44353749,252.5087,11/27.0/2020,2000,g  8.0,4.0
# From MPC 54164
P/2005 E1 (Tubbiolo),e,4.2637,335.5721,194.1226,7.037548,0.0527925,0.37518585,305.2560,11/27.0/2020,2000,g 10.0,4.0
# From MPC 54823
P/2005 GF8 (LONEOS),e,1.1935,314.8340,285.0943,5.861255,0.0694573,0.51812713,29.4847,11/27.0/2020,2000,g 11.5,4.0
# From MPC 79019
P/2005 J1 (McNaught),e,31.7664,268.8036,338.9573,3.569799,0.1461297,0.56987404,113.4400,11/27.0/2020,2000,g 16.5,4.0
# From MPC 74246
P/2005 L1 (McNaught),e,7.7386,138.2476,149.6980,3.975242,0.1243537,0.20936546,317.6425,11/27.0/2020,2000,g  9.5,4.0
# From MPC 75706
P/2005 S2 (Skiff),e,3.1357,161.1963,229.1584,8.017288,0.0434173,0.19689769,230.8726,11/27.0/2020,2000,g  7.5,4.0
# From MPC 75706
P/2005 SB216 (LONEOS),e,24.0727,1.2371,83.3929,7.127275,0.0517987,0.46332723,262.6164,11/27.0/2020,2000,g 12.0,2.0
# From MPC 55717
P/2005 T2 (Christensen),e,8.2927,260.1573,58.8103,3.845914,0.1306787,0.41640095,30.4006,11/27.0/2020,2000,g 14.5,4.0
# From MPC 73461
P/2005 T3 (Read),e,6.2247,27.7419,7.0205,7.577565,0.0472508,0.17395838,260.9930,11/27.0/2020,2000,g  9.0,4.0
# From MPC 73461
P/2005 T4 (SWAN),e,160.1817,25.6712,41.5756,9.360908,0.0344134,0.92991853,190.5977,11/27.0/2020,2000,g 15.0,4.0
# From MPC 75706
P/2005 T5 (Broughton),e,21.3528,57.0071,304.5250,7.291569,0.0500579,0.55199762,276.8693,11/27.0/2020,2000,g 11.0,4.0
# From MPC 56954
P/2005 W3 (Kowalski),e,16.4177,210.0908,200.6821,6.331952,0.0618583,0.54350214,341.5826,11/27.0/2020,2000,g 12.0,4.0
# From MPEC 2020-W25
P/2005 XA54 (LONEOS-Hill),e,17.1184,143.6711,15.1379,6.051398,0.0662095,0.71014351,355.8835,11/27.0/2020,2000,g 14.0,4.0
# From MPC 75706
P/2005 Y2 (McNaught),e,19.0938,94.5100,194.0346,6.384118,0.0611016,0.47043071,2.2755,11/27.0/2020,2000,g  9.0,4.0
# From MPC 56954
P/2006 F4 (Spacewatch),e,12.4021,183.8778,31.1600,3.526908,0.1488034,0.33937770,71.7741,11/27.0/2020,2000,g 15.0,4.0
# From MPC 75707
P/2006 HR30 (Siding Spring),e,31.8301,309.9019,117.2909,7.811253,0.0451464,0.84202090,230.1139,11/27.0/2020,2000,g 11.0,4.0
# From MPC 75707
P/2006 S4 (Christensen),e,39.5356,36.0948,305.1501,6.311156,0.0621643,0.50797771,334.2818,11/27.0/2020,2000,g 11.0,4.0
# From MPC 75707
P/2007 A2 (Christensen),e,26.4877,300.9067,186.7595,6.324674,0.0619651,0.55756569,314.6163,11/27.0/2020,2000,g 13.5,4.0
# From MPC 59319
P/2007 B1 (Christensen),e,12.3762,77.6667,46.7523,5.819604,0.0702043,0.58092632,355.8130,11/27.0/2020,2000,g 13.5,4.0
# From MPC 75707
P/2007 C2 (Catalina),e,8.6587,275.6277,179.8953,6.994239,0.0532836,0.47001142,256.2545,11/27.0/2020,2000,g 10.0,4.0
# From MPC 82314
P/2007 K2 (Gibbs),e,7.6365,188.6469,347.4696,7.262626,0.0503574,0.68335688,247.9330,11/27.0/2020,2000,g 14.0,4.0
# From MPC 60925
P/2007 Q2 (Gilmore),e,10.2023,172.1601,162.7773,5.655435,0.0732833,0.67028886,0.0018,11/27.0/2020,2000,g 16.0,4.0
# From MPEC 2020-W26
P/2007 R2 (Gibbs),e,1.2135,11.4732,352.3590,3.573032,0.1459314,0.54188940,10.5512,11/27.0/2020,2000,g 17.0,4.0
# From MPC 75708
P/2007 R4 (Garradd),e,20.2260,87.2224,282.6619,5.926430,0.0683147,0.66998464,334.2547,11/27.0/2020,2000,g 14.5,4.0
# From MPC 73462
P/2007 S1 (Zhao),e,5.9632,141.3798,245.7453,3.812728,0.1323885,0.33962930,269.8951,11/27.0/2020,2000,g 13.0,4.0
# From MPC 61994
P/2007 T2 (Kowalski),e,9.7448,3.3752,359.6357,3.047205,0.1852898,0.78522310,158.8454,11/27.0/2020,2000,g 18.5,4.0
# From MPEC 2020-W26
P/2007 VQ11 (Catalina),e,12.3200,163.8178,277.6615,5.426070,0.0779787,0.50327118,5.5882,11/27.0/2020,2000,g 12.0,4.0
# From MPEC 2020-W26
C/2011 KP36 (Spacewatch),e,18.9843,173.2980,180.6571,38.88392,0.0040649,0.87450747,6.6840,11/27.0/2020,2000,g  4.5,4.0
# From MPC 75708
P/2008 CL94 (Lemmon),e,8.3473,33.3319,80.5304,6.160811,0.0644536,0.12025785,340.7321,11/27.0/2020,2000,g  8.0,4.0
# From MPC 75709
P/2008 L2 (Hill),e,25.8564,218.0052,141.2107,6.028652,0.0665846,0.61301611,300.3894,11/27.0/2020,2000,g 12.5,4.0
# From MPC 64114
P/2008 O3 (Boattini),e,32.2487,47.5985,341.0865,8.223278,0.0417962,0.69505014,191.0659,11/27.0/2020,2000,g 13.0,4.0
# From MPC 75709
P/2008 QP20 (LINEAR-Hill),e,7.5214,322.0792,75.6334,3.552142,0.1472206,0.49230576,300.9463,11/27.0/2020,2000,g 15.5,4.0
# From MPC 66204
P/2008 WZ96 (LINEAR),e,7.1122,56.4898,341.8564,3.490768,0.1511202,0.47042446,318.7965,11/27.0/2020,2000,g 13.5,4.0
# From MPC 75710
P/2008 Y3 (McNaught),e,38.7628,262.7902,238.2701,8.045857,0.0431863,0.44554204,188.0299,11/27.0/2020,2000,g  8.5,4.0
# From MPC 75710
P/2009 B1 (Boattini),e,22.2192,297.0914,128.8967,6.735794,0.0563795,0.63464192,244.7359,11/27.0/2020,2000,g 13.0,4.0
# From MPC 75710
P/2009 O3 (Hill),e,16.2639,183.7166,154.3873,7.770672,0.0455005,0.68752578,191.5074,11/27.0/2020,2000,g 12.5,4.0
# From MPC 98557
P/2009 Q1 (Hill),e,14.5054,173.9588,157.1249,5.520073,0.0759953,0.49476190,318.7218,11/27.0/2020,2000,g 11.5,4.0
# From MPEC 2020-SI8
P/2009 Q4 (Boattini),e,11.0153,127.4642,320.2347,3.127986,0.1781586,0.58258049,354.7005,11/27.0/2020,2000,g 15.5,4.0
# From MPC 68902
P/2009 Q5 (McNaught),e,40.9735,160.2625,209.0194,7.438143,0.0485856,0.60865828,199.3721,11/27.0/2020,2000,g 10.0,4.0
# From MPC112389
P/2009 T2 (La Sagra),e,27.5456,215.7900,216.4222,7.724395,0.0459100,0.76507319,183.0693,11/27.0/2020,2000,g 14.0,4.0
# From MPC 75711
P/2009 U4 (McNaught),e,10.0809,55.3581,259.8415,5.083321,0.0859969,0.67609034,354.3146,11/27.0/2020,2000,g 14.0,4.0
# From MPC105235
P/2009 WX51 (Catalina),e,9.5954,31.6832,118.0695,3.080485,0.1822953,0.74030074,1.9394,11/27.0/2020,2000,g 19.0,2.0
# From MPC 74247
P/2009 Y2 (Kowalski),e,29.9293,262.0241,172.1717,6.549012,0.0588085,0.63586448,230.6593,11/27.0/2020,2000,g 13.0,4.0
# From MPC 75711
P/2010 A3 (Hill),e,14.8643,64.0819,41.9452,6.075566,0.0658149,0.73326826,256.8186,11/27.0/2020,2000,g 14.0,4.0
# From MPC 72851
P/2010 A5 (LINEAR),e,5.7979,277.6637,307.0879,5.083488,0.0859926,0.66502761,332.0967,11/27.0/2020,2000,g 13.0,4.0
# From MPC105235
P/2010 B2 (WISE),e,8.9306,0.8480,155.9190,3.109960,0.1797098,0.47989520,358.6401,11/27.0/2020,2000,g 17.0,4.0
# From MPC 75008
P/2010 C1 (Scotti),e,9.1282,141.8863,3.7795,7.102785,0.0520668,0.25862162,209.7558,11/27.0/2020,2000,g  9.5,4.0
# From MPC 75008
P/2010 D2 (WISE),e,57.0848,319.8918,120.0955,6.715633,0.0566335,0.45085467,222.9383,11/27.0/2020,2000,g 16.0,4.0
# From MPC 75009
P/2010 E2 (Jarnac),e,15.4060,177.8250,8.3704,8.637907,0.0388232,0.72025229,151.0359,11/27.0/2020,2000,g 14.0,4.0
# From MPC 72851
P/2010 H2 (Vales),e,14.2729,64.2067,128.1970,3.834429,0.1312662,0.19566528,154.2195,11/27.0/2020,2000,g  6.0,4.0
# From MPC 70361
P/2010 H3 (SOHO),e,23.0903,77.1078,26.1321,3.059835,0.1841438,0.98548830,0.0000,02/07.9639/2021,2000,g 20.0,2.0
# From MPC 73463
P/2010 H4 (Scotti),e,2.3190,44.7473,179.5605,6.589615,0.0582658,0.26756775,222.1478,11/27.0/2020,2000,g 10.5,4.0
# From MPC 74637
P/2010 H5 (Scotti),e,14.0672,24.8090,175.2827,7.158653,0.0514585,0.15367445,199.8714,11/27.0/2020,2000,g 13.0,2.0
# From MPC 98558
P/2010 J3 (McMillan),e,13.2892,106.4095,157.5845,8.970169,0.0366862,0.72725772,137.2785,11/27.0/2020,2000,g 11.0,4.0
# From MPC 84315
P/2010 JC81 (WISE),e,38.7183,30.8422,12.4429,8.111200,0.0426655,0.77668862,149.7503,11/27.0/2020,2000,g  9.0,4.0
# From MPC 74248
